norad_id,name,regime,epoch,line1,line2,inclination,eccentricity,mean_motion,raan,arg_pericenter,mean_anomaly
25049,SIRIUS 2 (GE-1E),GEO,05033.33049369,1 25049U 97071A   05033.33049369  .00000000  00000-0  10000-3 0  9884\,2 25049 000.0549 258.2973 0001095 217.4366 140.6396 01.00271301 26484,0.0549,0.0001095,1.00271301,258.2973,217.4366,140.6396
25049,SIRIUS 2 (GE-1E),GEO,05033.94981697,1 25049U 97071A   05033.94981697  .00000047  00000-0  10000-3 0  9870\,2 25049 000.0618 259.2949 0000607 067.9925 152.6410 01.00274134 26490,0.0618,6.07e-05,1.00274134,259.2949,67.9925,152.641
25049,SIRIUS 2 (GE-1E),GEO,05034.95190028,1 25049U 97071A   05034.95190028  .00000043  00000-0  10000-3 0  9890\,2 25049 000.0585 259.5097 0000665 059.9593 162.1959 01.00274180 26503,0.0585,6.65e-05,1.0027418,259.5097,59.9593,162.1959
25049,SIRIUS 2 (GE-1E),GEO,05036.04048791,1 25049U 97071A   05036.04048791  .00000038  00000-0  10000-3 0  9907\,2 25049 000.0572 260.1496 0000802 127.8676 126.5971 01.00274113 26515,0.0572,8.02e-05,1.00274113,260.1496,127.8676,126.5971
25049,SIRIUS 2 (GE-1E),GEO,05036.82007524,1 25049U 97071A   05036.82007524 +.00000034 +00000-0 +10000-3 0 09919\,2 25049 000.0548 259.5117 0000802 130.3168 046.2108 01.00274273026523,0.0548,8.02e-05,1.00274273,259.5117,130.3168,46.2108
25049,SIRIUS 2 (GE-1E),GEO,05037.91407977,1 25049U 97071A   05037.91407977  .00000029  00000-0  10000-3 0  9910\,2 25049 000.0522 259.8638 0000793 129.5683 081.5370 01.00274527 26533,0.0522,7.93e-05,1.00274527,259.8638,129.5683,81.537
25049,SIRIUS 2 (GE-1E),GEO,05040.02200811,1 25049U 97071A   05040.02200811  .00000022  00000-0  10000-3 0  9928\,2 25049 000.0515 260.9306 0000638 206.5883 044.3804 01.00273135 26551,0.0515,6.38e-05,1.00273135,260.9306,206.5883,44.3804
25049,SIRIUS 2 (GE-1E),GEO,05043.82831598,1 25049U 97071A   05043.82831598  .00000025  00000-0  10000-3 0  9935\,2 25049 000.0441 261.2118 0002078 233.7440 310.9669 01.00272704 26591,0.0441,0.0002078,1.00272704,261.2118,233.744,310.9669
25049,SIRIUS 2 (GE-1E),GEO,05046.82392362,1 25049U 97071A   05046.82392362  .00000031  00000-0  10000-3 0  9947\,2 25049 000.0249 253.2484 0002425 182.8294 011.1810 01.00272202 26626,0.0249,0.0002425,1.00272202,253.2484,182.8294,11.181
25049,SIRIUS 2 (GE-1E),GEO,05048.93035628,1 25049U 97071A   05048.93035628  .00000032  00000-0  10000-3 0  9952\,2 25049 000.0293 260.2024 0001793 129.9877 097.4779 01.00273382 26642,0.0293,0.0001793,1.00273382,260.2024,129.9877,97.4779
25049,SIRIUS 2 (GE-1E),GEO,05050.89160302,1 25049U 97071A   05050.89160302  .00000032  00000-0  10000-3 0  9969\,2 25049 000.0395 255.2064 0001892 094.0235 126.4157 01.00273778 26667,0.0395,0.0001892,1.00273778,255.2064,94.0235,126.4157
25049,SIRIUS 2 (GE-1E),GEO,05051.93123270,1 25049U 97071A   05051.93123270  .00000032  00000-0  10000-3 0  9979\,2 25049 000.0232 248.6500 0001745 104.6460 137.6520 01.00273709 26676,0.0232,0.0001745,1.00273709,248.65,104.646,137.652
25049,SIRIUS 2 (GE-1E),GEO,05055.35666824,1 25049U 97071A   05055.35666824  .00000035  00000-0  10000-3 0  9980\,2 25049 000.0273 255.6688 0001537 110.3615 281.4760 01.00274620 26702,0.0273,0.0001537,1.0027462,255.6688,110.3615,281.476
25049,SIRIUS 2 (GE-1E),GEO,05055.93976611,1 25049U 97071A   05055.93976611  .00000036  00000-0  10000-3 0  9994\,2 25049 000.0261 255.9781 0001044 122.9725 119.0464 01.00274394 26716,0.0261,0.0001044,1.00274394,255.9781,122.9725,119.0464
25049,SIRIUS 2 (GE-1E),GEO,05056.93536449,1 25049U 97071A   05056.93536449  .00000038  00000-0  10000-3 0    01\,2 25049 000.0351 249.0036 0001288 124.4921 123.8980 01.00274458 26726,0.0351,0.0001288,1.00274458,249.0036,124.4921,123.898
25049,SIRIUS 2 (GE-1E),GEO,05060.94431451,1 25049U 97071A   05060.94431451  .00000039  00000-0  10000-3 0    16\,2 25049 000.0420 190.6565 0002046 205.6724 108.2020 01.00271573 26768,0.042,0.0002046,1.00271573,190.6565,205.6724,108.202
25049,SIRIUS 2 (GE-1E),GEO,05064.85749422,1 25049U 97071A   05064.85749422 +.00000024 +00000-0 +10000-3 0 00025\,2 25049 000.0312 207.2109 0002032 185.5996 084.3286 01.00272559026807,0.0312,0.0002032,1.00272559,207.2109,185.5996,84.3286
25049,SIRIUS 2 (GE-1E),GEO,05067.85281251,1 25049U 97071A   05067.85281251  .00000015  00000-0  10000-3 0    30\,2 25049 000.0271 213.5214 0002337 179.0971 085.7847 01.00272929 26839,0.0271,0.0002337,1.00272929,213.5214,179.0971,85.7847
25049,SIRIUS 2 (GE-1E),GEO,05070.90860176,1 25049U 97071A   05070.90860176  .00000019  00000-0  10000-3 0    44\,2 25049 000.0230 212.2221 0002305 180.9641 108.3312 01.00273679 26863,0.023,0.0002305,1.00273679,212.2221,180.9641,108.3312
25049,SIRIUS 2 (GE-1E),GEO,05073.02092756,1 25049U 97071A   05073.02092756  .00000023  00000-0  10000-3 0    57\,2 25049 000.0357 250.0837 0001993 150.1269 143.7876 01.00271656 26886,0.0357,0.0001993,1.00271656,250.0837,150.1269,143.7876
25049,SIRIUS 2 (GE-1E),GEO,05074.85653358,1 25049U 97071A   05074.85653358  .00000026  00000-0  10000-3 0    64\,2 25049 000.0254 264.3532 0002836 115.4813 106.8032 01.00273578 26900,0.0254,0.0002836,1.00273578,264.3532,115.4813,106.8032
25049,SIRIUS 2 (GE-1E),GEO,05076.36069477,1 25049U 97071A   05076.36069477 +.00000027 +00000-0 +10000-3 0 00088\,2 25049 000.0189 254.1354 0001903 126.5001 289.0027 01.00273990026919,0.0189,0.0001903,1.0027399,254.1354,126.5001,289.0027
25049,SIRIUS 2 (GE-1E),GEO,05079.19111691,1 25049U 97071A   05079.19111691  .00000028  00000-0  10000-3 0    89\,2 25049 000.0259 246.9104 0000904 125.2462 239.2295 01.00273524 26946,0.0259,9.04e-05,1.00273524,246.9104,125.2462,239.2295
25049,SIRIUS 2 (GE-1E),GEO,05080.03481656,1 25049U 97071A   05080.03481656  .00000028  00000-0  10000-3 0    96\,2 25049 000.0219 261.1542 0001009 091.4689 203.3424 01.00274150 26952,0.0219,0.0001009,1.0027415,261.1542,91.4689,203.3424
25049,SIRIUS 2 (GE-1E),GEO,05081.03690050,1 25049U 97071A   05081.03690050  .00000029  00000-0  10000-3 0   100\,2 25049 000.0206 264.7167 0001005 077.7334 215.2640 01.00274385 26963,0.0206,0.0001005,1.00274385,264.7167,77.7334,215.264
25049,SIRIUS 2 (GE-1E),GEO,05083.35705573,1 25049U 97071A   05083.35705573  .00000034  00000-0  10000-3 0   111\,2 25049 000.0374 238.7206 0001400 174.5371 261.9871 01.00273633 26981,0.0374,0.00014,1.00273633,238.7206,174.5371,261.9871
25049,SIRIUS 2 (GE-1E),GEO,05085.83590279,1 25049U 97071A   05085.83590279  .00000039  00000-0  10000-3 0   127\,2 25049 000.0198 244.0605 0000902 169.4149 076.6121 01.00274557 27010,0.0198,9.02e-05,1.00274557,244.0605,169.4149,76.6121
25049,SIRIUS 2 (GE-1E),GEO,05087.93220466,1 25049U 97071A   05087.93220466  .00000040  00000-0  10000-3 0   131\,2 25049 000.0336 229.0694 0000901 188.6381 109.0996 01.00272840 27031,0.0336,9.01e-05,1.0027284,229.0694,188.6381,109.0996
25049,SIRIUS 2 (GE-1E),GEO,05091.68268642,1 25049U 97071A   05091.68268642  .00000027  00000-0  10000-3 0   153\,2 25049 000.0280 258.4220 0001184 234.0182 308.2295 01.00271539 27072,0.028,0.0001184,1.00271539,258.422,234.0182,308.2295
25049,SIRIUS 2 (GE-1E),GEO,05093.01435186,1 25049U 97071A   05093.01435186  .00000021  00000-0  10000-3 0   166\,2 25049 000.0271 262.8304 0001159 229.8348 068.7170 01.00271870 27081,0.0271,0.0001159,1.0027187,262.8304,229.8348,68.717
25049,SIRIUS 2 (GE-1E),GEO,05095.86223381,1 25049U 97071A   05095.86223381  .00000016  00000-0  10000-3 0   178\,2 25049 000.0240 256.1870 0001122 228.5066 024.7402 01.00272679 27116,0.024,0.0001122,1.00272679,256.187,228.5066,24.7402
25049,SIRIUS 2 (GE-1E),GEO,05099.94596355,1 25049U 97071A   05099.94596355  .00000025  00000-0  10000-3 0   186\,2 25049 000.0353 232.9335 0002572 140.4307 170.2056 01.00270908 27158,0.0353,0.0002572,1.00270908,232.9335,140.4307,170.2056
25049,SIRIUS 2 (GE-1E),GEO,05101.95005285,1 25049U 97071A   05101.95005285  .00000029  00000-0  10000-3 0   193\,2 25049 000.0175 240.4353 0001321 114.2252 192.3770 01.00273117 27178,0.0175,0.0001321,1.00273117,240.4353,114.2252,192.377
25049,SIRIUS 2 (GE-1E),GEO,05102.95233563,1 25049U 97071A   05102.95233563  .00000030  00000-0  10000-3 0   200\,2 25049 000.0140 239.9809 0001232 106.1312 202.7355 01.00273149 27188,0.014,0.0001232,1.00273149,239.9809,106.1312,202.7355
25049,SIRIUS 2 (GE-1E),GEO,05103.95441925,1 25049U 97071A   05103.95441925  .00000030  00000-0  10000-3 0   215\,2 25049 000.0131 235.9615 0002828 137.9828 176.6341 01.00273590 27190,0.0131,0.0002828,1.0027359,235.9615,137.9828,176.6341
25049,SIRIUS 2 (GE-1E),GEO,05106.95467802,1 25049U 97071A   05106.95467802  .00000031  00000-0  10000-3 0   222\,2 25049 000.0240 238.0386 0001730 138.7802 176.8150 01.00273202 27226,0.024,0.000173,1.00273202,238.0386,138.7802,176.815
25049,SIRIUS 2 (GE-1E),GEO,05109.96154519,1 25049U 97071A   05109.96154519  .00000037  00000-0  10000-3 0   231\,2 25049 000.0204 244.7614 0001483 128.7938 185.5446 01.00274208 27253,0.0204,0.0001483,1.00274208,244.7614,128.7938,185.5446
25049,SIRIUS 2 (GE-1E),GEO,05111.96591218,1 25049U 97071A   05111.96591218  .00000042  00000-0  10000-3 0   242\,2 25049 000.0179 241.5168 0001493 130.7985 190.3542 01.00274752 27276,0.0179,0.0001493,1.00274752,241.5168,130.7985,190.3542
25049,SIRIUS 2 (GE-1E),GEO,05113.92469745,1 25049U 97071A   05113.92469745  .00000046  00000-0  10000-3 0   254\,2 25049 000.0254 263.6142 0001181 274.2642 011.8794 01.00273667 27297,0.0254,0.0001181,1.00273667,263.6142,274.2642,11.8794
25049,SIRIUS 2 (GE-1E),GEO,05114.92078919,1 25049U 97071A   05114.92078919  .00000046  00000-0  10000-3 0   265\,2 25049 000.0224 263.6038 0001425 273.4837 012.2418 01.00273487 27306,0.0224,0.0001425,1.00273487,263.6038,273.4837,12.2418
25049,SIRIUS 2 (GE-1E),GEO,05117.92626727,1 25049U 97071A   05117.92626727  .00000039  00000-0  10000-3 0   277\,2 25049 000.0176 262.3513 0000792 185.1387 106.7577 01.00273331 27337,0.0176,7.92e-05,1.00273331,262.3513,185.1387,106.7577
